NORAD_CAT_ID,OBJECT_NAME,OBJECT_TYPE,EPOCH,MEAN_MOTION,ECCENTRICITY,INCLINATION,RA_OF_ASC_NODE,ARG_OF_PERICENTER,MEAN_ANOMALY,BSTAR,MEAN_MOTION_DOT,MEAN_MOTION_DDOT,TLE_LINE0,TLE_LINE1,TLE_LINE2,SEMIMAJOR_AXIS,PERIOD,APOGEE,PERIGEE,DECAYED
54095.0,STARLINK-5193,PAYLOAD,2023-05-17 01:46:33,15.08838124,9.35e-05,53.2145,266.9404,91.6347,268.4752,7.6958e-05,9.37e-06,0.0,0 STARLINK-5193,1 54095U 22136AW  23137.07399880  .00000937  00000-0  76958-4 0  9995,2 54095  53.2145 266.9404 0000935  91.6347 268.4752 15.08838124 32327,6917.886,95.438,540.398,539.104,0.0
54095.0,STARLINK-5193,PAYLOAD,2023-05-17 16:05:01,15.08844533,0.0001024,53.2148,264.2633,91.6323,268.4787,9.359e-05,1.202e-05,0.0,0 STARLINK-5193,1 54095U 22136AW  23137.67015590  .00001202  00000-0  93590-4 0  9991,2 54095  53.2148 264.2633 0001024  91.6323 268.4787 15.08844533 31945,6917.867,95.437,540.44,539.023,0.0
54095.0,STARLINK-5193,PAYLOAD,2023-05-18 12:45:02,15.08834222,0.0001036,53.2164,260.3985,80.1422,279.9687,7.7927e-05,9.52e-06,0.0,0 STARLINK-5193,1 54095U 22136AW  23138.53128323  .00000952  00000-0  77927-4 0  9993,2 54095  53.2164 260.3985 0001036  80.1422 279.9687 15.08834222 32543,6917.898,95.438,540.48,539.046,0.0
54095.0,STARLINK-5193,PAYLOAD,2023-05-18 17:31:11,15.08841196,0.0001103,53.2145,259.5047,100.0933,260.0183,3.7316e-05,3.06e-06,0.0,0 STARLINK-5193,1 54095U 22136AW  23138.72999902  .00000306  00000-0  37316-4 0  9994,2 54095  53.2145 259.5047 0001103 100.0933 260.0183 15.08841196 32107,6917.877,95.437,540.505,538.979,0.0
54095.0,STARLINK-5193,PAYLOAD,2023-05-19 12:35:49,15.08843098,0.0001177,53.2144,255.9352,91.6946,268.4181,6.8619e-05,8.04e-06,0.0,0 STARLINK-5193,1 54095U 22136AW  23139.52487784  .00000804  00000-0  68619-4 0  9996,2 54095  53.2144 255.9352 0001177  91.6946 268.4181 15.08843098 32692,6917.871,95.437,540.55,538.922,0.0
54095.0,STARLINK-5193,PAYLOAD,2023-05-20 17:12:44,15.08854842,0.000128,53.215,250.58,123.7556,236.3558,0.00018722,2.694e-05,0.0,0 STARLINK-5193,1 54095U 22136AW  23140.71718563  .00002694  00000-0  18722-3 0  9999,2 54095  53.2150 250.5800 0001280 123.7556 236.3558 15.08854842 32878,6917.835,95.437,540.586,538.815,0.0
54095.0,STARLINK-5193,PAYLOAD,2023-05-21 07:31:14,15.08834372,8.62e-05,53.215,247.9075,92.0329,268.0762,2.1617e-05,5.6e-07,0.0,0 STARLINK-5193,1 54095U 22136AW  23141.31336407  .00000056  00000-0  21617-4 0  9997,2 54095  53.2150 247.9075 0000862  92.0329 268.0762 15.08834372 32968,6917.898,95.438,540.359,539.166,0.0
54095.0,STARLINK-5193,PAYLOAD,2023-05-21 10:42:00,15.08834766,0.0001038,53.2148,247.3117,97.2367,262.8743,-3.2198e-05,-8e-06,0.0,0 STARLINK-5193,1 54095U 22136AW  23141.44584174 -.00000800  00000-0 -32198-4 0  9992,2 54095  53.2148 247.3117 0001038  97.2367 262.8743 15.08834766 32510,6917.896,95.438,540.479,539.043,0.0
54095.0,STARLINK-5193,PAYLOAD,2023-05-21 13:52:46,15.0883646,0.0001027,53.2147,246.7173,95.777,264.3339,-3.0494e-05,-7.73e-06,0.0,0 STARLINK-5193,1 54095U 22136AW  23141.57832117 -.00000773  00000-0 -30494-4 0  9995,2 54095  53.2147 246.7173 0001027  95.7770 264.3339 15.08836460 32536,6917.891,95.438,540.467,539.046,0.0
54095.0,STARLINK-5193,PAYLOAD,2023-05-22 13:43:33,15.08843909,0.0001043,53.2138,242.2584,99.1779,260.9331,9.6407e-05,1.247e-05,0.0,0 STARLINK-5193,1 54095U 22136AW  23142.57191878  .00001247  00000-0  96407-4 0  9999,2 54095  53.2138 242.2584 0001043  99.1779 260.9331 15.08843909 32684,6917.868,95.437,540.455,539.012,0.0
54095.0,STARLINK-5193,PAYLOAD,2023-05-23 11:58:58,15.08831565,0.0001028,53.2141,238.0966,99.1491,260.9618,6.2802e-05,7.12e-06,0.0,0 STARLINK-5193,1 54095U 22136AW  23143.49928764  .00000712  00000-0  62802-4 0  9991,2 54095  53.2141 238.0966 0001028  99.1491 260.9618 15.08831565 33290,6917.906,95.438,540.482,539.06,0.0
54095.0,STARLINK-5193,PAYLOAD,2023-05-24 15:00:31,15.08845926,0.0001034,53.214,233.0389,96.2076,263.9034,0.00013366,1.84e-05,0.0,0 STARLINK-5193,1 54095U 22136AW  23144.62536234  .00001840  00000-0  13366-3 0  9997,2 54095  53.2140 233.0389 0001034  96.2076 263.9034 15.08845926 33467,6917.862,95.437,540.443,539.012,0.0
54095.0,STARLINK-5193,PAYLOAD,2023-05-26 09:55:56,15.08835185,0.0001063,53.2157,225.0078,95.0125,265.0989,0.00028643,4.273e-05,0.0,0 STARLINK-5193,1 54095U 22136AW  23146.41384720  .00004273  00000-0  28643-3 0  9994,2 54095  53.2157 225.0078 0001063  95.0125 265.0989 15.08835185 33733,6917.895,95.438,540.495,539.025,0.0
54095.0,STARLINK-5193,PAYLOAD,2023-05-26 11:31:18,15.08849222,0.0001134,53.2155,224.7107,95.887,264.2251,8.523e-05,1.069e-05,0.0,0 STARLINK-5193,1 54095U 22136AW  23146.48008082  .00001069  00000-0  85230-4 0  9991,2 54095  53.2155 224.7107 0001134  95.8870 264.2251 15.08849222 33273,6917.852,95.437,540.502,538.933,0.0
54095.0,STARLINK-5193,PAYLOAD,2023-05-26 22:39:01,15.08830713,0.0001034,53.2154,222.6291,102.7966,257.3141,0.00021934,3.204e-05,0.0,0 STARLINK-5193,1 54095U 22136AW  23146.94376920  .00003204  00000-0  21934-3 0  9994,2 54095  53.2154 222.6291 0001034 102.7966 257.3141 15.08830713 33812,6917.909,95.438,540.489,539.058,0.0
54095.0,STARLINK-5193,PAYLOAD,2023-05-27 14:32:53,15.08833797,9.96e-05,53.2149,219.6582,79.1512,280.9592,-2.725e-05,-7.21e-06,0.0,0 STARLINK-5193,1 54095U 22136AW  23147.60617301 -.00000721  00000-0 -27250-4 0  9990,2 54095  53.2149 219.6582 0000996  79.1512 280.9592 15.08833797 33441,6917.899,95.438,540.453,539.075,0.0
54095.0,STARLINK-5193,PAYLOAD,2023-05-28 09:37:30,15.08840668,9.86e-05,53.2144,216.0904,73.4519,286.6581,2.1768e-05,5.9e-07,0.0,0 STARLINK-5193,1 54095U 22136AW  23148.40104831  .00000059  00000-0  21768-4 0  9998,2 54095  53.2144 216.0904 0000986  73.4519 286.6581 15.08840668 34030,6917.878,95.438,540.425,539.061,0.0
54095.0,STARLINK-5193,PAYLOAD,2023-05-28 14:23:39,15.08846051,9.8e-05,53.2147,215.1969,78.5809,281.5293,6.3134e-05,7.17e-06,0.0,0 STARLINK-5193,1 54095U 22136AW  23148.59976320  .00000717  00000-0  63134-4 0  9992,2 54095  53.2147 215.1969 0000980  78.5809 281.5293 15.08846051 33592,6917.862,95.437,540.405,539.049,0.0
54095.0,STARLINK-5193,PAYLOAD,2023-05-29 09:28:17,15.08842372,9.5e-05,53.2147,211.6281,73.8862,286.2235,0.00013399,1.845e-05,0.0,0 STARLINK-5193,1 54095U 22136AW  23149.39464241  .00001845  00000-0  13399-3 0  9995,2 54095  53.2147 211.6281 0000950  73.8862 286.2235 15.08842372 33718,6917.873,95.437,540.395,539.081,0.0
54095.0,STARLINK-5193,PAYLOAD,2023-05-29 20:35:59,15.08837314,9.59e-05,53.2144,209.5465,71.4894,288.6203,0.0001085,1.439e-05,0.0,0 STARLINK-5193,1 54095U 22136AW  23149.85832659  .00001439  00000-0  10850-3 0  9996,2 54095  53.2144 209.5465 0000959  71.4894 288.6203 15.08837314 33781,6917.889,95.438,540.417,539.09,0.0
54095.0,STARLINK-5193,PAYLOAD,2023-05-30 04:32:55,15.08834951,0.000104,53.2141,208.06,84.709,275.4021,-4.1555e-05,-9.49e-06,0.0,0 STARLINK-5193,1 54095U 22136AW  23150.18953335 -.00000949  00000-0 -41555-4 0  9993,2 54095  53.2141 208.0600 0001040  84.7090 275.4021 15.08834951 34305,6917.896,95.438,540.48,539.041,0.0
54095.0,STARLINK-5193,PAYLOAD,2023-05-30 10:54:28,15.0883599,0.0001032,53.2143,206.8706,83.106,277.005,-3.9414e-05,-9.15e-06,0.0,0 STARLINK-5193,1 54095U 22136AW  23150.45449277 -.00000915  00000-0 -39414-4 0  9992,2 54095  53.2143 206.8706 0001032  83.1060 277.0050 15.08835990 33876,6917.893,95.438,540.472,539.044,0.0
54095.0,STARLINK-5193,PAYLOAD,2023-05-30 20:26:46,15.08838293,0.0001058,53.2148,205.0871,86.5399,273.5714,-3.1585e-05,-7.9e-06,0.0,0 STARLINK-5193,1 54095U 22136AW  23150.85193138 -.00000790  00000-0 -31585-4 0  9990,2 54095  53.2148 205.0871 0001058  86.5399 273.5714 15.08838293 33939,6917.886,95.438,540.483,539.019,0.0
54095.0,STARLINK-5193,PAYLOAD,2023-05-31 10:45:14,15.08841367,0.0001059,53.2147,202.4112,86.0511,274.0602,4.6293e-05,4.49e-06,0.0,0 STARLINK-5193,1 54095U 22136AW  23151.44808716  .00000449  00000-0  46293-4 0  9992,2 54095  53.2147 202.4112 0001059  86.0511 274.0602 15.08841367 34499,6917.876,95.437,540.474,539.009,0.0
54095.0,STARLINK-5193,PAYLOAD,2023-05-31 12:20:37,15.08841442,0.0001059,53.2147,202.1139,85.4547,274.6566,4.6068e-05,4.45e-06,0.0,0 STARLINK-5193,1 54095U 22136AW  23151.51432712  .00000445  00000-0  46068-4 0  9995,2 54095  53.2147 202.1139 0001059  85.4547 274.6566 15.08841442 34036,6917.876,95.437,540.474,539.008,0.0
54095.0,STARLINK-5193,PAYLOAD,2023-05-31 20:17:34,15.08834618,0.000107,53.2147,200.6268,84.9175,275.194,7.6917e-06,-1.65e-06,0.0,0 STARLINK-5193,1 54095U 22136AW  23151.84553294 -.00000165  00000-0  76917-5 0  9997,2 54095  53.2147 200.6268 0001070  84.9175 275.1940 15.08834618 34080,6917.897,95.438,540.502,539.022,0.0
54095.0,STARLINK-5193,PAYLOAD,2023-06-01 10:36:02,15.08831948,0.0001074,53.2142,197.9493,80.8033,279.308,5.8693e-05,6.46e-06,0.0,0 STARLINK-5193,1 54095U 22136AW  23152.44169597  .00000646  00000-0  58693-4 0  9996,2 54095  53.2142 197.9493 0001074  80.8033 279.3080 15.08831948 34179,6917.905,95.438,540.513,539.027,0.0
54095.0,STARLINK-5193,PAYLOAD,2023-06-01 20:08:21,15.0883604,0.000113,53.2147,196.1646,80.5074,279.6045,6.6365e-05,7.68e-06,0.0,0 STARLINK-5193,1 54095U 22136AW  23152.83913476  .00000768  00000-0  66365-4 0  9992,2 54095  53.2147 196.1646 0001130  80.5074 279.6045 15.08836040 34239,6917.892,95.438,540.539,538.976,0.0
54095.0,STARLINK-5193,PAYLOAD,2023-06-02 02:29:53,15.08840277,0.0001193,53.2147,194.975,80.2127,279.8999,4.1986e-05,3.8e-06,0.0,0 STARLINK-5193,1 54095U 22136AW  23153.10409342  .00000380  00000-0  41986-4 0  9997,2 54095  53.2147 194.9750 0001193  80.2127 279.8999 15.08840277 34749,6917.88,95.438,540.57,538.919,0.0
54095.0,STARLINK-5193,PAYLOAD,2023-06-02 10:26:49,15.08841595,0.0001179,53.2145,193.4883,79.8614,280.2511,5.2163e-05,5.42e-06,0.0,0 STARLINK-5193,1 54095U 22136AW  23153.43529204  .00000542  00000-0  52163-4 0  9992,2 54095  53.2145 193.4883 0001179  79.8614 280.2511 15.08841595 34321,6917.876,95.437,540.556,538.925,0.0
